BEESAT-4                
1 41619U 16040W   22362.37212102  .00023959  00000+0  63829-3 0  9993
2 41619  97.1901  48.3200 0008806 131.8215 228.3784 15.38134189350454
CAS-2T & KS-1Q          
1 41847U 16066G   22361.81507330  .00000848  00000+0  13674-3 0  9997
2 41847  98.5285  66.0801 0362194 351.4049   8.1040 14.38978452322152
NAYIF-1 (EO-88)         
1 42017U 17008BX  22361.71937905  .00038387  00000+0  86400-3 0  9994
2 42017  97.2445  65.7253 0002607 273.7845  86.3105 15.43198169326782
ZHUHAI-1 02 (CAS-4B)    
1 42759U 17034B   22362.39466946  .00005679  00000+0  32198-3 0  9996
2 42759  43.0187 342.4673 0009323  71.0719  84.2667 15.13688090305724
ZHUHAI-1 01 (CAS-4A)    
1 42761U 17034D   22362.28339247  .00006081  00000+0  34291-3 0  9994
2 42761  43.0178 341.7267 0009428  74.0015  60.9026 15.13791351305710
MAX VALIER SAT          
1 42778U 17036P   22362.34628236  .00013434  00000+0  45086-3 0  9994
2 42778  97.1817  36.9614 0009942   6.2875 353.8490 15.30941584306522
RADFXSAT (FOX-1B)       
1 43017U 17073E   22361.92964146  .00007153  00000+0  52792-3 0  9991
2 43017  97.6520 248.1330 0241416 273.4926  83.8706 14.83125450275771
FOX-1D (AO-92)          
1 43137U 18004AC  22362.16310352  .00017999  00000+0  54505-3 0  9993
2 43137  97.3502  75.9262 0007913  42.2526 317.9325 15.34193011275987
DIWATA-2B               
1 43678U 18084H   22362.55840044  .00001587  00000+0  15996-3 0  9997
2 43678  97.9956 138.4835 0010014  14.0288 346.1213 14.92590333226803
ES'HAIL 2               
1 43700U 18090A   22362.50131818  .00000146  00000+0  00000+0 0  9993
2 43700   0.0173 334.8579 0001434 344.7690 343.5801  1.00271275 14971
FOX-1CLIFF (AO-95)      
1 43770U 18099N   22361.70772837  .00003717  00000+0  32287-3 0  9995
2 43770  97.5972  62.9151 0013368 352.0561   8.0447 14.97543757221920
ITASAT 1                
1 43786U 18099AE  22362.49228123  .00002250  00000+0  19738-3 0  9990
2 43786  97.6011  64.6895 0014254 342.2057  17.8665 14.97548061222083
JY1SAT (JO-97)          
1 43803U 18099AX  22361.76394196  .00003659  00000+0  31181-3 0  9993
2 43803  97.5965  63.8190 0014125 341.5297  18.5411 14.98294856222004
UWE-4                   
1 43880U 18111E   22361.95348510  .00006141  00000+0  50419-3 0  9997
2 43880  97.6581 264.8781 0013263  43.1507 317.0753 14.99490787218681
NEXUS (FO-99)           
1 43937U 19003F   22362.07472281  .00024405  00000+0  67967-3 0  9997
2 43937  97.1107  28.3455 0017764 172.7723 187.3782 15.36630630219645
PSAT2 (NO-104)          
1 44354U 19036R   22361.92937676  .00225001  82735-5  87372-3 0  9992
2 44354  28.5169 249.9486 0121029  35.2497 325.6046 15.75137186194790
JAISAT-1                
1 44419U 19038F   22362.37637281  .00011632  00000+0  52182-3 0  9998
2 44419  97.6601 334.7981 0017503 173.3371 186.8100 15.21227913192491
DUCHIFAT-3              
1 44854U 19089C   22362.47817848  .00005153  00000+0  38366-3 0  9996
2 44854  36.9651  28.8385 0007569 354.5678 149.5127 15.02747766167116
CAS-6 (TIANQIN 1)       
1 44881U 19093C   22362.30692940  .00000790  00000+0  10610-3 0  9991
2 44881  97.8790  78.6062 0013508 276.3053  83.6625 14.81995260163486
RS-44 & BREEZE-KM R/B   
1 44909U 19096E   22362.55132945  .00000025  00000+0  57958-4 0  9994
2 44909  82.5217 101.3350 0216867 225.6949 132.6191 12.79717341140384
ORBITAL FACTORY 2 (OF-2)
1 45113U 19071C   22362.49127175  .00066586  00000+0  75391-3 0  9991
2 45113  51.6319 175.6683 0009843 180.4509 179.6477 15.61731286163504
HUSKYSAT-1 (HO-107)     
1 45119U 19071J   22361.89097301  .00064739  00000+0  84543-3 0  9994
2 45119  51.6327 181.3740 0009970 170.8228 189.2949 15.57996287163363
BY70-2                  
1 45857U 20042B   22362.32134933  .00010360  00000+0  12833-2 0  9998
2 45857  97.9422  77.5363 0009906 199.7026 160.3808 14.82858665134156
SALSAT                  
1 46495U 20068K   22362.57575669  .00003457  00000+0  24373-3 0  9999
2 46495  97.7527 304.2628 0015759 346.2928  13.7869 15.05580021123381
BY70-3                  
1 46839U 20079N   22362.48999583  .00052475  00000+0  77721-3 0  9997
2 46839  97.1770  73.2196 0003978 357.3474 128.4424 15.55100879120246
RADFXSAT-2 (AO-109)     
1 47311U 21002C   22362.48349319  .00012304  00000+0  42874-3 0  9994
2 47311  60.6849 349.9123 0038938  89.3898 271.1653 15.29353591108094
UVSQ-SAT                
1 47438U 21006AB  22362.09352504  .00011111  00000+0  54195-3 0  9999
2 47438  97.4122  57.1617 0010314 329.0230  31.0394 15.18429940106637
DIY-1 (ARDUIQUBE)       
1 47963U 21022AH  22362.15736991  .00035019  00000+0  15249-2 0  9992
2 47963  97.5165 262.0338 0013236 172.8816 187.2610 15.22055173 96311
XW-3 (CAS-9)            
1 50466U 21131B   22362.64770749  .00000300  00000+0  11237-3 0  9997
2 50466  98.5670  79.6732 0003487 291.6470  68.4346 14.38604777 52839
TEVEL-3                 
1 50988U 22002E   22362.45595558  .00010645  00000+0  53088-3 0  9999
2 50988  97.4595  66.3239 0010291 107.5160  19.3106 15.17664219 52800
TEVEL-8                 
1 50989U 22002F   22362.46779889  .00010495  00000+0  52435-3 0  9990
2 50989  97.4610  66.3748 0010249 106.6491  19.3969 15.17606626 52809
TEVEL-5                 
1 50998U 22002Q   22362.47714975  .00010729  00000+0  52625-3 0  9997
2 50998  97.4587  66.5654 0011861 104.5951  20.7031 15.18228870 52829
TEVEL-6                 
1 50999U 22002R   22362.47615537  .00010763  00000+0  52780-3 0  9992
2 50999  97.4591  66.5612 0011813 104.3777  21.0167 15.18235899 52823
TEVEL-1                 
1 51013U 22002AF  22362.46191615  .00010542  00000+0  52626-3 0  9999
2 51013  97.4588  66.2935 0010287 107.8254  20.4823 15.17633300 52802
TEVEL-7                 
1 51062U 22002CG  22362.46981912  .00010503  00000+0  52471-3 0  9995
2 51062  97.4603  66.3565 0010227 105.8997  19.9709 15.17607173 52805
TEVEL-4                 
1 51063U 22002CH  22362.47182296  .00010452  00000+0  52246-3 0  9998
2 51063  97.4606  66.3519 0010336 106.9798  18.7597 15.17586873 52805
TEVEL-2                 
1 51069U 22002CP  22362.45670337  .00010653  00000+0  53134-3 0  9990
2 51069  97.4587  66.3023 0010159 106.8280  14.1631 15.17660539 52808
GREENCUBE               
1 53106U 22080B   22354.08419093 -.00000003  00000+0  00000+0 0  9999
2 53106  70.1702  21.9397 0008914 226.9685 182.2049  6.42557326 10248
YUZGU 9 (RS3S)          
1 53308U 98067TT  22362.50000247  .00183950  00000+0  10752-2 0  9994
2 53308  51.6333  82.6081 0005675 319.9016  40.1565 15.77265732 25013
YUZGU 7 (RS1S)          
1 53309U 98067TU  22362.52831474  .00205317  00000+0  11331-2 0  9997
2 53309  51.6317  82.0349 0006294 322.1820  37.8738 15.78482685 24972
YUZGU 11 (RS5S)         
1 53310U 98067TV  22362.49786795  .00196546  00000+0  11390-2 0  9998
2 53310  51.6343  82.5937 0005788 317.4247  42.6304 15.77419946 24992
YUZGU 12 (RS6S)         
1 53311U 98067TW  22362.49080216  .00229143  00000+0  11886-2 0  9994
2 53311  51.6306  81.7783 0005934 325.4057  34.6557 15.79787067 25023
TSIOLKOVSKY-RYAZAN 1 (*)
1 53312U 98067TX  22362.60007799  .00190652  00000+0  10746-2 0  9999
2 53312  51.6309  81.7734 0006568 321.4005  38.6526 15.78053656 24978
TSIOLKOVSKY-RYAZAN 2 (*)
1 53313U 98067TY  22362.53022979  .00216059  00000+0  12086-2 0  9998
2 53313  51.6329  82.0600 0006303 324.1340  35.9237 15.78150073 25012
YUZGU 10 (RS4S)         
1 53321U 98067TZ  22362.29417501  .00218722  00000+0  12519-2 0  9999
2 53321  51.6344  83.4818 0005830 319.0877  40.9685 15.77632188 24974
RS29S (SXC3-2110 CYCLO*)
1 53373U 22096D   22362.50011413  .00015316  00000+0  56198-3 0  9997
2 53373  97.4288 263.1305 0003342  62.5585  26.7473 15.28046515 21531
RS32S (SXC3-212 MONITO*)
1 53374U 22096E   22362.50693926  .00014063  00000+0  51649-3 0  9997
2 53374  97.4278 263.1479 0003135  56.0018 115.8970 15.28035395 21538
RS34S (SXC3-218 KUZBAS*)
1 53375U 22096F   22362.57629800  .00011960  00000+0  44640-3 0  9991
2 53375  97.4280 263.1789 0003135  55.7394  30.9223 15.27542869 21546
RS23S (SXC3-21 UTMN)    
1 53376U 22096G   22362.50612598  .00012951  00000+0  48139-3 0  9999
2 53376  97.4286 263.1199 0003041  58.3082  27.8418 15.27660435 21537
RS28S (SXC3-214 MIET-A*)
1 53377U 22096H   22362.50687755  .00012298  00000+0  45873-3 0  9993
2 53377  97.4284 263.1205 0003154  56.9545  29.1339 15.27555807 21530
RS26S (KAI-1)           
1 53378U 22096J   22362.51438584  .00010790  00000+0  40615-3 0  9993
2 53378  97.4284 263.1057 0002989  49.6752  29.5218 15.27290570 21533
RS19S (SXC3-219 ISOI)   
1 53381U 22096M   22362.52779810  .00012621  00000+0  46320-3 0  9992
2 53381  97.4284 263.2401 0003273 338.6699 104.2555 15.28086037 21547
RS21S (CUBESX-HSE-2)    
1 53383U 22096P   22362.51783841  .00012734  00000+0  46630-3 0  9991
2 53383  97.4283 263.2428 0003488 338.6301  72.3672 15.28155809 21544
RS30S (SXC3-217 SIREN)  
1 53384U 22096Q   22362.46508986  .00011880  00000+0  43839-3 0  9990
2 53384  97.4283 263.1740 0003378 337.3470 108.7484 15.27920663 21533
RS20S (GEOSCAN-EDELVEIS)
1 53385U 22096R   22362.47984538  .00016220  00000+0  57684-3 0  9999
2 53385  97.4283 263.3038 0003776 338.3843 107.7217 15.29059350 21578
RS33S (SXC3-215 VIZARD) 
1 53386U 22096S   22362.56837130  .00019070  00000+0  65829-3 0  9991
2 53386  97.4281 263.5042 0004519 333.3712 149.1147 15.29994444 21585
CAS-5A (FO-118)         
1 54684U 22167C   22362.57369684  .00007177  00000+0  45683-3 0  9998
2 54684  97.5388 137.2340 0014179 197.1865 294.6940 15.09000230  2903
CAS-10                  
1 54816U 21035C   22362.61051878  .00104946  00000+0  11453-2 0  9995
2 54816  41.4775 115.2471 0007818 259.1558 100.8402 15.62218869  1525
